LEMUR-1                 
1 40044U 14033AL  26185.67503252  .00002635  00000+0  30646-3 0  9992
2 40044  97.7896 335.0936 0048674  22.3997 337.9328 14.85315417648068
LEMUR-2-GREENBERG       
1 42837U 17042N   26185.46590226  .00024909  00000+0  80942-3 0  9993
2 42837  97.3827   6.0171 0007279 305.7985  54.2579 15.31879629491039
LEMUR-2-ANDIS           
1 42838U 17042P   26185.25928255  .00033593  00000+0  97068-3 0  9994
2 42838  97.3685   6.0558 0007223 304.5319  55.5242 15.35550599491079
LEMUR-2-MONSON          
1 42839U 17042Q   26185.77419387  .00030548  00000+0  10988-2 0  9995
2 42839  97.4090   6.2693 0005182 293.4829  66.5866 15.28549793490852
LEMUR-2-FURIAUS         
1 42840U 17042R   26185.73310588  .00036173  00000+0  12101-2 0  9995
2 42840  97.3776   4.1987 0006868  10.1304 350.0075 15.30867625490898
LEMUR-2-PETERG          
1 42841U 17042S   26185.77546819  .00049530  00000+0  14666-2 0  9997
2 42841  97.3997  10.8423 0002819 271.4936  88.5984 15.34712984491139
LEMUR-2-DEMBITZ         
1 42842U 17042T   26185.75274329  .00033708  00000+0  11286-2 0  9995
2 42842  97.3827   7.2552 0005378 321.4252  38.6604 15.30862613491030
LEMUR-2-ZACHARY         
1 42845U 17042W   26185.80294224  .00099482  00000+0  16413-2 0  9998
2 42845  97.3587  17.8321 0002376 301.9276  58.1745 15.51927144491937
LEMUR-2-AMANDA-SVANTE   
1 48269U 21034B   26184.72218815  .00036457  00000+0  10612-2 0  9990
2 48269  97.5753 263.4542 0003868 168.8216 191.3113 15.35322296283594
LEMUR-2-SPECIAL-K       
1 48273U 21034F   26185.51748154  .00398477  00000+0  31040-2 0  9998
2 48273  97.5637 273.7005 0005614 222.0679 138.0153 15.70518084284409
LEMUR-2-EMBRIONOVIS     
1 56970U 23084AQ  26185.64091916  .00025842  00000+0  69115-3 0  9997
2 56970  97.6316 330.5169 0007641 248.0379 112.0053 15.38015741170363
LEMUR-2-DEVERILL-M-T    
1 57391U 23100F   26185.84098571  .00049372  00000+0  12056-2 0  9995
2 57391  99.4455 229.7084 0004920 342.6622  17.4449 15.40683853163962
LEMUR-2-BASS            
1 58259U 23174D   26184.74345391  .00020308  00000+0  45159-3 0  9992
2 58259  97.3847 269.6928 0008049 112.3430 247.8671 15.43659511147913
LEMUR-2-JK0903EM1407    
1 58336U 23174CJ  26185.67975840  .00052973  00000+0  85781-3 0  9997
2 58336  97.3922 276.6539 0004399  67.9907 292.1813 15.52629579148448
LEMUR-2-MJR092620       
1 58340U 23174CN  26185.70856068  .00037498  00000+0  77906-3 0  9991
2 58340  97.3974 276.0674 0006181  65.0445 295.1446 15.45559655148355
LEMUR-2-NIMBUS2000      
1 58899U 24022A   26185.03434160  .00029162  00000+0  71327-3 0  9994
2 58899  97.4090  35.2523 0009768  64.6794 295.5463 15.40707114134862
LEMUR-2-VALHALLA        
1 58900U 24022B   26185.03500643  .00019924  00000+0  49676-3 0  9994
2 58900  97.4085  35.2329 0010284  60.2993 299.9276 15.40195193134869
LEMUR-2-CAEL            
1 58903U 24022E   26185.03041249  .00021527  00000+0  51358-3 0  9991
2 58903  97.4069  36.1943 0008340  46.7317 313.4624 15.41534845134934
LEMUR-2-JOHNNYTRUONG    
1 59146U 24043BA  26185.39291360  .00056885  00000+0  65452-3 0  9999
2 59146  97.5391 338.1783 0004555 124.7433 235.4254 15.61818849130726
LEMUR-2-TOMATOKECHUP    
1 60471U 24149D   26185.49912609  .00021268  00000+0  60014-3 0  9992
2 60471  97.3793 267.5937 0002803 142.1058 218.0383 15.36409366104824
LEMUR-2-STELLA          
1 60533U 24149BT  26185.68563782  .00025295  00000+0  14646-2 0  9999
2 60533  97.6733 268.2211 0001271 102.2955 257.8418 15.12208331103141
LEMUR-2-MARHISYAM       
1 60536U 24149BW  26185.20908443  .00013632  00000+0  80573-3 0  9992
2 60536  97.6878 268.2083 0003135  87.7673 272.3915 15.11598158103058
LEMUR-2-AHMED-ASRAR     
1 60576U 24149DN  26185.68953550  .00026205  00000+0  14784-2 0  9997
2 60576  97.7001 270.8528 0000358 297.9321  62.1873 15.13134735103218
LEMUR-2-LLOYD           
1 60577U 24149DP  26185.47742288  .00016153  00000+0  10076-2 0  9990
2 60577  97.6743 266.6189 0005209  97.3125 262.8696 15.09588412103000
LEMUR-2-SQUIRRELCOMM    
1 60578U 24149DQ  26185.64903846  .00012104  00000+0  80366-3 0  9991
2 60578  97.6699 266.5065 0005021   5.0899 355.0379 15.07361952103031
LEMUR-2-SIERRINI        
1 60579U 24149DR  26185.50083692  .00024779  00000+0  14691-2 0  9993
2 60579  97.6840 268.1731 0006475 118.1822 242.0062 15.11339599103079
LEMUR-2-WILSON          
1 62694U 25009CP  26185.49476189  .00004314  00000+0  39714-3 0  9991
2 62694  97.7019 263.6559 0002765  12.1137 348.0150 14.95245400 79947
LEMUR-2-STAR-FOX        
1 62696U 25009CR  26185.67316563  .00015183  00000+0  11386-2 0  9992
2 62696  97.6935 267.1576 0003707  75.6150 284.5486 15.02750050 80184
LEMUR-2-ARIANNA         
1 62699U 25009CU  26185.67163124  .00015652  00000+0  11735-2 0  9997
2 62699  97.6875 266.9168 0004033  80.3070 279.8611 15.02748619 80186
